NORAD_CAT_ID,OBJECT_NAME,OBJECT_TYPE,EPOCH,MEAN_MOTION,ECCENTRICITY,INCLINATION,RA_OF_ASC_NODE,ARG_OF_PERICENTER,MEAN_ANOMALY,BSTAR,MEAN_MOTION_DOT,MEAN_MOTION_DDOT,TLE_LINE0,TLE_LINE1,TLE_LINE2,SEMIMAJOR_AXIS,PERIOD,APOGEE,PERIGEE,DECAYED
53727.0,STARLINK-4701,PAYLOAD,2023-01-29 04:50:59,15.08846326,0.000123,53.2182,311.5139,78.4165,281.6965,5.0413e-05,5.15e-06,0.0,0 STARLINK-4701,1 53727U 22107AD  23029.20207652  .00000515  00000-0  50413-4 0  9994,2 53727  53.2182 311.5139 0001230  78.4165 281.6965 15.08846326 22539,6917.861,95.437,540.577,538.875,0.0
53727.0,STARLINK-4701,PAYLOAD,2023-01-29 19:09:28,15.08835675,0.0001444,53.2193,308.8356,79.5575,280.5579,-3.8854e-05,-9.06e-06,0.0,0 STARLINK-4701,1 53727U 22107AD  23029.79824767 -.00000906  00000-0 -38854-4 0  9991,2 53727  53.2193 308.8356 0001444  79.5575 280.5579 15.08835675 22629,6917.894,95.438,540.758,538.76,0.0
53727.0,STARLINK-4701,PAYLOAD,2023-01-30 04:41:46,15.08842668,0.0001231,53.2187,307.0538,73.3382,286.7746,-2.0306e-07,-2.91e-06,0.0,0 STARLINK-4701,1 53727U 22107AD  23030.19568160 -.00000291  00000-0 -20306-6 0  9991,2 53727  53.2187 307.0538 0001231  73.3382 286.7746 15.08842668 22687,6917.872,95.437,540.589,538.886,0.0
53727.0,STARLINK-4701,PAYLOAD,2023-01-30 22:11:02,15.08833528,0.0001229,53.2183,303.783,76.8553,283.2576,-3.4718e-05,-8.4e-06,0.0,0 STARLINK-4701,1 53727U 22107AD  23030.92433129 -.00000840  00000-0 -34718-4 0  9998,2 53727  53.2183 303.7830 0001229  76.8553 283.2576 15.08833528 22796,6917.9,95.438,540.615,538.915,0.0
53727.0,STARLINK-4701,PAYLOAD,2023-01-31 02:57:11,15.08841491,0.0001177,53.2182,302.8909,85.3615,274.7512,2.7892e-05,1.56e-06,0.0,0 STARLINK-4701,1 53727U 22107AD  23031.12304408  .00000156  00000-0  27892-4 0  9991,2 53727  53.2182 302.8909 0001177  85.3615 274.7512 15.08841491 22825,6917.876,95.437,540.555,538.927,0.0
53727.0,STARLINK-4701,PAYLOAD,2023-01-31 18:51:02,15.08842431,0.0001212,53.218,299.9172,81.6344,278.4785,0.00010804,1.432e-05,0.0,0 STARLINK-4701,1 53727U 22107AD  23031.78544179  .00001432  00000-0  10804-3 0  9996,2 53727  53.2180 299.9172 0001212  81.6344 278.4785 15.08842431 23525,6917.873,95.437,540.576,538.9,0.0
53727.0,STARLINK-4701,PAYLOAD,2023-02-01 02:47:56,15.0885496,0.0001252,53.2185,298.4303,83.7672,276.3463,0.00018105,2.596e-05,0.0,0 STARLINK-4701,1 53727U 22107AD  23032.11662987  .00002596  00000-0  18105-3 0  9996,2 53727  53.2185 298.4303 0001252  83.7672 276.3463 15.08854960 22979,6917.835,95.437,540.566,538.834,0.0
53727.0,STARLINK-4701,PAYLOAD,2023-02-02 01:03:22,15.08837627,0.0001422,53.2194,294.269,79.372,280.7432,-1.7257e-05,-5.63e-06,0.0,0 STARLINK-4701,1 53727U 22107AD  23033.04400915 -.00000563  00000-0 -17257-4 0  9992,2 53727  53.2194 294.2690 0001422  79.3720 280.7432 15.08837627 23119,6917.888,95.438,540.736,538.769,0.0
53727.0,STARLINK-4701,PAYLOAD,2023-02-02 23:18:45,15.08847267,0.0001049,53.2198,290.1053,82.5313,277.5798,-8.0255e-05,-1.565e-05,0.0,0 STARLINK-4701,1 53727U 22107AD  23033.97135923 -.00001565  00000-0 -80255-4 0  9999,2 53727  53.2198 290.1053 0001049  82.5313 277.5798 15.08847267 23255,6917.858,95.437,540.449,538.997,0.0
53727.0,STARLINK-4701,PAYLOAD,2023-02-03 02:29:31,15.0885477,0.000139,53.2177,289.5107,77.4502,282.6645,0.00010772,1.428e-05,0.0,0 STARLINK-4701,1 53727U 22107AD  23034.10383105  .00001428  00000-0  10772-3 0  9994,2 53727  53.2177 289.5107 0001390  77.4502 282.6645 15.08854770 23273,6917.835,95.437,540.662,538.739,0.0
53727.0,STARLINK-4701,PAYLOAD,2023-02-04 21:24:56,15.08847459,0.0001165,53.2174,281.4821,83.1623,276.9501,1.4853e-05,-5.1e-07,0.0,0 STARLINK-4701,1 53727U 22107AD  23035.89231990 -.00000051  00000-0  14853-4 0  9992,2 53727  53.2174 281.4821 0001165  83.1623 276.9501 15.08847459 23545,6917.858,95.437,540.529,538.917,0.0
53727.0,STARLINK-4701,PAYLOAD,2023-02-05 13:18:48,15.0883052,0.0001062,53.2172,278.509,84.7265,275.3848,6.3559e-05,7.24e-06,0.0,0 STARLINK-4701,1 53727U 22107AD  23036.55472961  .00000724  00000-0  63559-4 0  9994,2 53727  53.2172 278.5090 0001062  84.7265 275.3848 15.08830520 23642,6917.909,95.438,540.509,539.04,0.0
53727.0,STARLINK-4701,PAYLOAD,2023-02-05 22:51:07,15.08834983,0.0001024,53.2174,276.7239,82.9343,277.1766,4.9564e-05,5.01e-06,0.0,0 STARLINK-4701,1 53727U 22107AD  23036.95216876  .00000501  00000-0  49564-4 0  9992,2 53727  53.2174 276.7239 0001024  82.9343 277.1766 15.08834983 24304,6917.896,95.438,540.469,539.052,0.0
53727.0,STARLINK-4701,PAYLOAD,2023-02-06 11:34:12,15.08840284,0.0001134,53.2171,274.345,92.1958,267.9164,3.4388e-05,2.6e-06,0.0,0 STARLINK-4701,1 53727U 22107AD  23037.48208806  .00000260  00000-0  34388-4 0  9995,2 53727  53.2171 274.3450 0001134  92.1958 267.9164 15.08840284 24385,6917.88,95.438,540.529,538.96,0.0
53727.0,STARLINK-4701,PAYLOAD,2023-02-06 19:31:07,15.0884555,0.0001142,53.217,272.8583,90.2458,269.8665,7.976e-05,9.82e-06,0.0,0 STARLINK-4701,1 53727U 22107AD  23037.81328357  .00000982  00000-0  79760-4 0  9990,2 53727  53.2170 272.8583 0001142  90.2458 269.8665 15.08845550 23834,6917.863,95.437,540.518,538.938,0.0
53727.0,STARLINK-4701,PAYLOAD,2023-02-06 22:41:53,15.08849924,0.0001083,53.217,272.2635,88.6537,271.4579,0.00011297,1.511e-05,0.0,0 STARLINK-4701,1 53727U 22107AD  23037.94575977  .00001511  00000-0  11297-3 0  9995,2 53727  53.2170 272.2635 0001083  88.6537 271.4579 15.08849924 24450,6917.85,95.437,540.464,538.966,0.0
53727.0,STARLINK-4701,PAYLOAD,2023-02-07 20:57:18,15.08837971,0.0001034,53.2167,268.1001,92.2399,267.8712,0.00010932,1.452e-05,0.0,0 STARLINK-4701,1 53727U 22107AD  23038.87312937  .00001452  00000-0  10932-3 0  9992,2 53727  53.2167 268.1001 0001034  92.2399 267.8712 15.08837971 24592,6917.887,95.438,540.467,539.036,0.0
53727.0,STARLINK-4701,PAYLOAD,2023-02-07 22:32:41,15.08839959,0.0001028,53.2167,267.8028,91.0292,269.0818,0.00012787,1.748e-05,0.0,0 STARLINK-4701,1 53727U 22107AD  23038.93936816  .00001748  00000-0  12787-3 0  9995,2 53727  53.2167 267.8028 0001028  91.0292 269.0818 15.08839959 24004,6917.881,95.438,540.457,539.034,0.0
53727.0,STARLINK-4701,PAYLOAD,2023-02-08 09:40:23,15.08831943,0.0001105,53.2154,265.7208,90.3378,269.7741,-5.2754e-05,-1.127e-05,0.0,0 STARLINK-4701,1 53727U 22107AD  23039.40305168 -.00001127  00000-0 -52754-4 0  9990,2 53727  53.2154 265.7208 0001105  90.3378 269.7741 15.08831943 24074,6917.905,95.438,540.534,539.006,0.0
53727.0,STARLINK-4701,PAYLOAD,2023-02-08 20:48:05,15.08834937,0.0001016,53.2156,263.6392,86.4118,273.699,-2.0649e-05,-6.16e-06,0.0,0 STARLINK-4701,1 53727U 22107AD  23039.86673231 -.00000616  00000-0 -20649-4 0  9999,2 53727  53.2156 263.6392 0001016  86.4118 273.6990 15.08834937 24746,6917.896,95.438,540.464,539.058,0.0
53727.0,STARLINK-4701,PAYLOAD,2023-02-08 23:58:51,15.08840032,0.0001106,53.2154,263.0451,90.6195,269.4923,9.1013e-06,-1.43e-06,0.0,0 STARLINK-4701,1 53727U 22107AD  23039.99921000 -.00000143  00000-0  91013-5 0  9991,2 53727  53.2154 263.0451 0001106  90.6195 269.4923 15.08840032 24164,6917.88,95.438,540.51,538.98,0.0
53727.0,STARLINK-4701,PAYLOAD,2023-02-09 09:31:10,15.08839158,0.0001093,53.2166,261.26,94.0269,266.0849,0.00010038,1.31e-05,0.0,0 STARLINK-4701,1 53727U 22107AD  23040.39665235  .00001310  00000-0  10038-3 0  9994,2 53727  53.2166 261.2600 0001093  94.0269 266.0849 15.08839158 24828,6917.883,95.438,540.504,538.992,0.0
53727.0,STARLINK-4701,PAYLOAD,2023-02-09 20:38:52,15.08845904,0.0001142,53.2156,259.1779,102.1944,257.9176,0.00021226,3.092e-05,0.0,0 STARLINK-4701,1 53727U 22107AD  23040.86032893  .00003092  00000-0  21226-3 0  9994,2 53727  53.2156 259.1779 0001142 102.1944 257.9176 15.08845904 24891,6917.862,95.437,540.517,538.937,0.0
53727.0,STARLINK-4701,PAYLOAD,2023-02-09 22:14:15,15.08851886,0.0001127,53.2158,258.8805,92.9762,267.136,0.00028287,4.218e-05,0.0,0 STARLINK-4701,1 53727U 22107AD  23040.92656588  .00004218  00000-0  28287-3 0  9999,2 53727  53.2158 258.8805 0001127  92.9762 267.1360 15.08851886 24306,6917.844,95.437,540.489,538.929,0.0
53727.0,STARLINK-4701,PAYLOAD,2023-02-10 20:29:40,15.08839098,0.0001327,53.2153,254.7183,83.7246,276.3897,0.00014214,1.975e-05,0.0,0 STARLINK-4701,1 53727U 22107AD  23041.85393542  .00001975  00000-0  14214-3 0  9992,2 53727  53.2153 254.7183 0001327  83.7246 276.3897 15.08839098 24445,6917.883,95.438,540.666,538.83,0.0
53727.0,STARLINK-4701,PAYLOAD,2023-02-11 20:20:26,15.08843699,0.0001343,53.2159,250.2577,97.1105,263.0039,0.00015898,2.243e-05,0.0,0 STARLINK-4701,1 53727U 22107AD  23042.84753387  .00002243  00000-0  15898-3 0  9997,2 53727  53.2159 250.2577 0001343  97.1105 263.0039 15.08843699 25196,6917.869,95.437,540.663,538.805,0.0
53727.0,STARLINK-4701,PAYLOAD,2023-02-11 23:31:13,15.08843934,0.0001346,53.2154,249.6623,82.6274,277.4871,0.00017397,2.482e-05,0.0,0 STARLINK-4701,1 53727U 22107AD  23042.98001377  .00002482  00000-0  17397-3 0  9998,2 53727  53.2154 249.6623 0001346  82.6274 277.4871 15.08843934 24615,6917.868,95.437,540.665,538.802,0.0
53727.0,STARLINK-4701,PAYLOAD,2023-02-12 13:49:41,15.08836257,0.0001139,53.2159,246.987,84.3069,275.8053,8.6934e-05,1.096e-05,0.0,0 STARLINK-4701,1 53727U 22107AD  23043.57617849  .00001096  00000-0  86934-4 0  9995,2 53727  53.2159 246.9870 0001139  84.3069 275.8053 15.08836257 24709,6917.892,95.438,540.545,538.969,0.0
53727.0,STARLINK-4701,PAYLOAD,2023-02-12 21:46:36,15.08867557,0.0001233,53.2163,245.4992,80.3025,279.8107,0.00058861,9.099e-05,0.0,0 STARLINK-4701,1 53727U 22107AD  23043.90736275  .00009099  00000-0  58861-3 0  9995,2 53727  53.2163 245.4992 0001233  80.3025 279.8107 15.08867557 24752,6917.796,95.436,540.514,538.808,0.0
53727.0,STARLINK-4701,PAYLOAD,2023-02-13 04:08:09,15.08830424,0.0001678,53.2167,244.3107,59.8365,300.2793,-0.00018952,-3.302e-05,0.0,0 STARLINK-4701,1 53727U 22107AD  23044.17233628 -.00003302  00000-0 -18952-3 0  9999,2 53727  53.2167 244.3107 0001678  59.8365 300.2793 15.08830424 24790,6917.91,95.438,540.935,538.614,0.0
